IRIDIUM 138             
1 43071U 17083B   26168.45600855  .00000114  00000+0  33643-4 0  9998
2 43071  86.3978 321.5984 0002322  87.1610 272.9851 14.34217852444173
IRIDIUM 116             
1 43072U 17083C   26168.49406381  .00000012  00000+0 -28276-5 0  9996
2 43072  86.3959 321.8731 0001878  99.3926 260.7482 14.34217678444212
IRIDIUM 130             
1 43073U 17083D   26168.46234867  .00000117  00000+0  34855-4 0  9996
2 43073  86.3971 322.1614 0001942  92.3562 267.7857 14.34218795444159
IRIDIUM 151             
1 43074U 17083E   26168.50675007 -.00000006  00000+0 -90388-5 0  9990
2 43074  86.3961 321.9256 0002052  93.2453 266.8977 14.34217359444181
IRIDIUM 134             
1 43075U 17083F   26168.47503698 -.00000047  00000+0 -23803-4 0  9995
2 43075  86.3962 321.9468 0001998  91.6063 268.5362 14.34217125444149
IRIDIUM 137             
1 43076U 17083G   26168.48772167  .00000014  00000+0 -20687-5 0  9997
2 43076  86.3965 322.0344 0002166 104.4329 255.7107 14.34217665444216
IRIDIUM 141             
1 43077U 17083H   26168.48137887  .00000027  00000+0  25205-5 0  9996
2 43077  86.3963 321.8674 0002233  91.1630 268.9822 14.34217849444214
IRIDIUM 153             
1 43078U 17083J   26168.43355852  .00000023  00000+0  10679-5 0  9991
2 43078  86.3961 290.3677 0002248  89.7108 270.4345 14.34217597445315
IRIDIUM 131             
1 43079U 17083K   26168.46869285  .00000080  00000+0  21539-4 0  9994
2 43079  86.3969 322.0586 0002198  91.5571 268.5877 14.34217220444146
IRIDIUM 144             
1 43249U 18030A   26168.37013168  .00000159  00000+0  49662-4 0  9991
2 43249  86.3958 290.3232 0002098  97.3138 262.8296 14.34216936430162
IRIDIUM 149             
1 43250U 18030B   26168.37647522  .00000007  00000+0 -46592-5 0  9993
2 43250  86.3954 290.2879 0002136  93.8441 266.2999 14.34217403430187
IRIDIUM 157             
1 43251U 18030C   26168.39550304 -.00000025  00000+0 -15921-4 0  9999
2 43251  86.3956 290.3332 0002087  94.2244 265.9191 14.34217246430169
IRIDIUM 140             
1 43252U 18030D   26168.41453057  .00000002  00000+0 -64892-5 0  9996
2 43252  86.3955 290.3377 0002033  94.0171 266.1257 14.34217406430227
IRIDIUM 145             
1 43253U 18030E   26168.40184519  .00000029  00000+0  33698-5 0  9998
2 43253  86.3959 290.3151 0002010 101.2025 258.9397 14.34217462430154
IRIDIUM 146             
1 43254U 18030F   26168.38281549  .00000111  00000+0  32451-4 0  9994
2 43254  86.3959 290.3353 0002118  96.8249 263.3187 14.34218648430160
IRIDIUM 148             
1 43255U 18030G   26168.35110487  .00000015  00000+0 -15916-5 0  9996
2 43255  86.3957 290.3919 0002149  96.3812 263.7628 14.34217553430193
IRIDIUM 142             
1 43256U 18030H   26168.38916041  .00000019  00000+0 -14747-6 0  9996
2 43256  86.3956 290.2647 0002120  98.7749 261.3686 14.34217326430167
IRIDIUM 150             
1 43257U 18030J   26168.42721566  .00000037  00000+0  62458-5 0  9998
2 43257  86.3960 290.3652 0002149  93.7691 266.3750 14.34217685430190
IRIDIUM 143             
1 43258U 18030K   26168.40818786 -.00000008  00000+0 -99124-5 0  9998
2 43258  86.3960 290.4659 0001982  96.7770 263.3651 14.34217262430125
IRIDIUM 161             
1 43478U 18047C   26168.30765659  .00000258  00000+0  70714-4 0  9997
2 43478  86.4482  88.4206 0002593  84.4866 275.6630 14.43278511425155
IRIDIUM 152             
1 43479U 18047D   26168.31113829  .00000106  00000+0  30775-4 0  9990
2 43479  86.3957  88.2805 0002348  82.8419 277.3044 14.34216980422505
IRIDIUM 147             
1 43480U 18047E   26168.31748010  .00000014  00000+0 -21153-5 0  9998
2 43480  86.3959  88.2829 0002027  85.6373 274.5054 14.34217509422507
IRIDIUM 110             
1 43481U 18047F   26168.32382395  .00000086  00000+0  23758-4 0  9990
2 43481  86.3961  88.3722 0002567  82.0755 278.0732 14.34217275422498
IRIDIUM 162             
1 43482U 18047G   26168.30136338  .00000271  00000+0  74671-4 0  9999
2 43482  86.4482  88.3145 0002267  82.4060 277.7398 14.43281687425144
IRIDIUM 160             
1 43569U 18061A   26168.13012119  .00000061  00000+0  14731-4 0  9990
2 43569  86.3963  56.8214 0002269  85.6967 274.4488 14.34217987413360
IRIDIUM 166             
1 43570U 18061B   26168.08572313  .00000004  00000+0 -55393-5 0  9991
2 43570  86.3959  56.7902 0002009  86.5927 273.5499 14.34217524413389
IRIDIUM 158             
1 43571U 18061C   26168.12377830  .00000072  00000+0  18647-4 0  9998
2 43571  86.3961  56.7845 0002179  82.4615 277.6828 14.34218005413359
IRIDIUM 165             
1 43572U 18061D   26168.14914852  .00000078  00000+0  20753-4 0  9999
2 43572  86.3963  56.8203 0002061  86.7148 273.4284 14.34217452413387
IRIDIUM 155             
1 43573U 18061E   26168.11109323  .00000022  00000+0  83932-6 0  9995
2 43573  86.3957  56.7050 0002004  82.4609 277.6814 14.34217625413345
IRIDIUM 154             
1 43574U 18061F   26168.09206353  .00000084  00000+0  22940-4 0  9992
2 43574  86.3961  56.8465 0002128  87.3073 272.8367 14.34216433413399
IRIDIUM 163             
1 43575U 18061G   26168.14280366  .00000046  00000+0  94171-5 0  9999
2 43575  86.3959  56.7408 0002251  83.5349 276.6103 14.34216405413371
